[{"name": "Abkhazian", "nativeName": "аҧсуа бызшәа, аҧсшәа", "isoCode": "ab"}, {"name": "Afar", "nativeName": "Afaraf", "isoCode": "aa"}, {"name": "Afrikaans", "nativeName": "Afrikaans", "isoCode": "af"}, {"name": "Akan", "nativeName": "Akan", "isoCode": "ak"}, {"name": "Albanian", "nativeName": "Shqip", "isoCode": "sq"}, {"name": "Amharic", "nativeName": "አማርኛ", "isoCode": "am"}, {"name": "Arabic", "nativeName": "العربية", "isoCode": "ar"}, {"name": "Aragonese", "nativeName": "aragonés", "isoCode": "an"}, {"name": "Armenian", "nativeName": "Հայերեն", "isoCode": "hy"}, {"name": "Assamese", "nativeName": "অসমীয়া", "isoCode": "as"}, {"name": "Avaric", "nativeName": "авар мацӀ, магӀарул мацӀ", "isoCode": "av"}, {"name": "Avestan", "nativeName": "avesta", "isoCode": "ae"}, {"name": "Aymara", "nativeName": "aymar aru", "isoCode": "ay"}, {"name": "Azerbaijani", "nativeName": "azərbaycan dili", "isoCode": "az"}, {"name": "Bambara", "nativeName": "bamanankan", "isoCode": "bm"}, {"name": "Bashkir", "nativeName": "башҡорт теле", "isoCode": "ba"}, {"name": "Basque", "nativeName": "euskara, euskera", "isoCode": "eu"}, {"name": "Belarusian", "nativeName": "беларуская мова", "isoCode": "be"}, {"name": "Bengali", "nativeName": "বাংলা", "isoCode": "bn"}, {"name": "Bihari languages", "nativeName": "भोजपुरी", "isoCode": "bh"}, {"name": "Bislama", "nativeName": "Bislama", "isoCode": "bi"}, {"name": "Bosnian", "nativeName": "bosanski jezik", "isoCode": "bs"}, {"name": "Breton", "nativeName": "brezhoneg", "isoCode": "br"}, {"name": "Bulgarian", "nativeName": "български език", "isoCode": "bg"}, {"name": "Burmese", "nativeName": "ဗမာစာ", "isoCode": "my"}, {"name": "Catalan, Valencian", "nativeName": "català, valencià", "isoCode": "ca"}, {"name": "Chamorro", "nativeName": "Chamoru", "isoCode": "ch"}, {"name": "Chechen", "nativeName": "нохчийн мотт", "isoCode": "ce"}, {"name": "Chichewa, Chewa, Nyanja", "nativeName": "chiCheŵa, chinyanja", "isoCode": "ny"}, {"name": "Chinese", "nativeName": "中文 (Zhōngwén), 汉语, 漢語", "isoCode": "zh"}, {"name": "Chuvash", "nativeName": "чӑваш чӗлхи", "isoCode": "cv"}, {"name": "Cornish", "nativeName": "Kernewek", "isoCode": "kw"}, {"name": "Corsican", "nativeName": "corsu, lingua corsa", "isoCode": "co"}, {"name": "Cree", "nativeName": "ᓀᐦᐃᔭᐍᐏᐣ", "isoCode": "cr"}, {"name": "Croatian", "nativeName": "hrvatski jezik", "isoCode": "hr"}, {"name": "Czech", "nativeName": "čeština, český jazyk", "isoCode": "cs"}, {"name": "Danish", "nativeName": "dansk", "isoCode": "da"}, {"name": "Divehi, Dhivehi, Maldivian", "nativeName": "ދިވެހި", "isoCode": "dv"}, {"name": "Dutch, Flemish", "nativeName": "Nederlands, Vlaams", "isoCode": "nl"}, {"name": "Dzongkha", "nativeName": "རྫོང་ཁ", "isoCode": "dz"}, {"name": "English", "nativeName": "English", "isoCode": "en"}, {"name": "Esperanto", "nativeName": "Esperanto", "isoCode": "eo"}, {"name": "Estonian", "nativeName": "eesti, eesti keel", "isoCode": "et"}, {"name": "Ewe", "nativeName": "Eʋegbe", "isoCode": "ee"}, {"name": "Faroese", "nativeName": "føroyskt", "isoCode": "fo"}, {"name": "Fijian", "nativeName": "vosa Vakaviti", "isoCode": "fj"}, {"name": "Filipino", "nativeName": "Pilipino", "isoCode": "fl"}, {"name": "Finnish", "nativeName": "suomi, suomen kieli", "isoCode": "fi"}, {"name": "French", "nativeName": "français, langue française", "isoCode": "fr"}, {"name": "Fulah", "nativeName": "Fulfulde, Pulaar, Pular", "isoCode": "ff"}, {"name": "Galician", "nativeName": "Galego", "isoCode": "gl"}, {"name": "Georgian", "nativeName": "ქართული", "isoCode": "ka"}, {"name": "German", "nativeName": "Deutsch", "isoCode": "de"}, {"name": "Greek (modern)", "nativeName": "ελληνικά", "isoCode": "el"}, {"name": "Guaraní", "nativeName": "Avañe'ẽ", "isoCode": "gn"}, {"name": "Gujarati", "nativeName": "ગુજરાતી", "isoCode": "gu"}, {"name": "Haitian, Haitian Creole", "nativeName": "Kreyòl ayisyen", "isoCode": "ht"}, {"name": "Hausa", "nativeName": "(Hausa) هَوُسَ", "isoCode": "ha"}, {"name": "Hebrew (modern)", "nativeName": "עברית", "isoCode": "he"}, {"name": "Herero", "nativeName": "Otjiherero", "isoCode": "hz"}, {"name": "Hindi", "nativeName": "हिन्दी, हिंदी", "isoCode": "hi"}, {"name": "Hiri Motu", "nativeName": "Hiri Motu", "isoCode": "ho"}, {"name": "Hungarian", "nativeName": "magyar", "isoCode": "hu"}, {"name": "Interlingua", "nativeName": "Interlingua", "isoCode": "ia"}, {"name": "Indonesian", "nativeName": "Bahasa Indonesia", "isoCode": "id"}, {"name": "Interlingue", "nativeName": "Originally called Occidental; then Interlingue after WWII", "isoCode": "ie"}, {"name": "Irish", "nativeName": "Gaeilge", "isoCode": "ga"}, {"name": "Igbo", "nativeName": "Asụsụ Igbo", "isoCode": "ig"}, {"name": "Inupiaq", "nativeName": "Iñupiaq, Iñupiatun", "isoCode": "ik"}, {"name": "Ido", "nativeName": "Ido", "isoCode": "io"}, {"name": "Icelandic", "nativeName": "Íslenska", "isoCode": "is"}, {"name": "Italian", "nativeName": "Italiano", "isoCode": "it"}, {"name": "Inuktitut", "nativeName": "ᐃᓄᒃᑎᑐᑦ", "isoCode": "iu"}, {"name": "Japanese", "nativeName": "日本語 (にほんご)", "isoCode": "ja"}, {"name": "Javanese", "nativeName": "ꦧꦱꦗꦮ, Basa Jawa", "isoCode": "jv"}, {"name": "Kalaallisut, Greenlandic", "nativeName": "kalaallisut, kalaallit oqaasii", "isoCode": "kl"}, {"name": "Kannada", "nativeName": "ಕನ್ನಡ", "isoCode": "kn"}, {"name": "Kanuri", "nativeName": "Kanuri", "isoCode": "kr"}, {"name": "Kashmiri", "nativeName": "कश्मीरी, كشميري‎", "isoCode": "ks"}, {"name": "Kazakh", "nativeName": "қазақ тілі", "isoCode": "kk"}, {"name": "Central Khmer", "nativeName": "ខ្មែរ, ខេមរភាសា, ភាសាខ្មែរ", "isoCode": "km"}, {"name": "Kikuyu, Gikuyu", "nativeName": "Gĩkũyũ", "isoCode": "ki"}, {"name": "Kinyarwanda", "nativeName": "Ikinyarwanda", "isoCode": "rw"}, {"name": "Kirghiz, Kyrgyz", "nativeName": "Кыргызча, Кыргыз тили", "isoCode": "ky"}, {"name": "Komi", "nativeName": "коми кыв", "isoCode": "kv"}, {"name": "Kongo", "nativeName": "Kikongo", "isoCode": "kg"}, {"name": "Korean", "nativeName": "한국어", "isoCode": "ko"}, {"name": "Kurdish", "nativeName": "Kurdî, كوردی‎", "isoCode": "ku"}, {"name": "Kuanyama, Kwanyama", "nativeName": "Kuanyama", "isoCode": "kj"}, {"name": "Latin", "nativeName": "latine, lingua latina", "isoCode": "la"}, {"name": "Luxembourgish, Letzeburgesch", "nativeName": "Lëtzebuergesch", "isoCode": "lb"}, {"name": "Ganda", "nativeName": "Luganda", "isoCode": "lg"}, {"name": "Limburgan, Limburger, Limburgish", "nativeName": "Limburgs", "isoCode": "li"}, {"name": "Lingala", "nativeName": "Lingála", "isoCode": "ln"}, {"name": "Lao", "nativeName": "ພາສາລາວ", "isoCode": "lo"}, {"name": "Lithuanian", "nativeName": "lietuvių kalba", "isoCode": "lt"}, {"name": "Luba-Katanga", "nativeName": "Kiluba", "isoCode": "lu"}, {"name": "Latvian", "nativeName": "latviešu valoda", "isoCode": "lv"}, {"name": "Manx", "nativeName": "Gaelg, Gailck", "isoCode": "gv"}, {"name": "Macedonian", "nativeName": "македонски јазик", "isoCode": "mk"}, {"name": "Malagasy", "nativeName": "fiteny malagasy", "isoCode": "mg"}, {"name": "Malay", "nativeName": "Bahasa Melayu, بهاس ملايو‎", "isoCode": "ms"}, {"name": "Malayalam", "nativeName": "മലയാളം", "isoCode": "ml"}, {"name": "Maltese", "nativeName": "Malti", "isoCode": "mt"}, {"name": "Maori", "nativeName": "te reo Māori", "isoCode": "mi"}, {"name": "Marathi", "nativeName": "मराठी", "isoCode": "mr"}, {"name": "Marshallese", "nativeName": "Kajin M̧ajeļ", "isoCode": "mh"}, {"name": "Mongolian", "nativeName": "Монгол хэл", "isoCode": "mn"}, {"name": "Nauru", "nativeName": "Dorerin Naoero", "isoCode": "na"}, {"name": "Navajo, Navaho", "nativeName": "Diné bizaad", "isoCode": "nv"}, {"name": "North Ndebele", "nativeName": "isiNdebele", "isoCode": "nd"}, {"name": "Nepali", "nativeName": "नेपाली", "isoCode": "ne"}, {"name": "Ndonga", "nativeName": "Owambo", "isoCode": "ng"}, {"name": "Norwegian Bokmål", "nativeName": "Norsk Bokmål", "isoCode": "nb"}, {"name": "Norwegian Nynorsk", "nativeName": "Norsk Nynorsk", "isoCode": "nn"}, {"name": "Norwegian", "nativeName": "Norsk", "isoCode": "no"}, {"name": "Sichuan Yi, Nuosu", "nativeName": "ꆈꌠ꒿ Nuosuhxop", "isoCode": "ii"}, {"name": "South Ndebele", "nativeName": "isiNdebele", "isoCode": "nr"}, {"name": "Occitan", "nativeName": "occitan, lenga d'òc", "isoCode": "oc"}, {"name": "Ojibwa", "nativeName": "ᐊᓂᔑᓈᐯᒧᐎᓐ", "isoCode": "oj"}, {"name": "Church Slavic, Church Slavonic, Old Church Slavonic, Old Slavonic, Old Bulgarian", "nativeName": "ѩзыкъ словѣньскъ", "isoCode": "cu"}, {"name": "Oromo", "nativeName": "Afaan Oromoo", "isoCode": "om"}, {"name": "Oriya", "nativeName": "ଓଡ଼ିଆ", "isoCode": "or"}, {"name": "Ossetian, Ossetic", "nativeName": "ирон æвзаг", "isoCode": "os"}, {"name": "Panjabi, Punjabi", "nativeName": "ਪੰਜਾਬੀ", "isoCode": "pa"}, {"name": "Pali", "nativeName": "पाऴि", "isoCode": "pi"}, {"name": "Persian", "nativeName": "فارسی", "isoCode": "fa"}, {"name": "Polish", "nativeName": "język polski, Polszczyzna", "isoCode": "pl"}, {"name": "Pashto, Pushto", "nativeName": "پښتو", "isoCode": "ps"}, {"name": "Portuguese", "nativeName": "Português", "isoCode": "pt"}, {"name": "Quechua", "nativeName": "Runa Simi, Kichwa", "isoCode": "qu"}, {"name": "Romansh", "nativeName": "Rumantsch Grischun", "isoCode": "rm"}, {"name": "Rundi", "nativeName": "Ikirundi", "isoCode": "rn"}, {"name": "Romanian, Moldavian, Moldovan", "nativeName": "Română", "isoCode": "ro"}, {"name": "Russian", "nativeName": "русский", "isoCode": "ru"}, {"name": "Sanskrit", "nativeName": "संस्कृतम्", "isoCode": "sa"}, {"name": "Sardinian", "nativeName": "sardu", "isoCode": "sc"}, {"name": "Sindhi", "nativeName": "सिन्धी, سنڌي، سندھی‎", "isoCode": "sd"}, {"name": "Northern Sami", "nativeName": "Davvisámegiella", "isoCode": "se"}, {"name": "Samoan", "nativeName": "gagana fa'a Samoa", "isoCode": "sm"}, {"name": "Sango", "nativeName": "yângâ tî sängö", "isoCode": "sg"}, {"name": "Serbian", "nativeName": "српски језик", "isoCode": "sr"}, {"name": "Gaelic, Scottish Gaelic", "nativeName": "Gàidhlig", "isoCode": "gd"}, {"name": "Shona", "nativeName": "chiShona", "isoCode": "sn"}, {"name": "Sinhala, Sinhalese", "nativeName": "සිංහල", "isoCode": "si"}, {"name": "Slovak", "nativeName": "Slovenčina, Slovenský Jazyk", "isoCode": "sk"}, {"name": "Slovenian", "nativeName": "Slovenski Jezik, Slovenščina", "isoCode": "sl"}, {"name": "Somali", "nativeName": "Soomaaliga, af Soomaali", "isoCode": "so"}, {"name": "Southern Sotho", "nativeName": "Sesotho", "isoCode": "st"}, {"name": "Spanish, Castilian", "nativeName": "Español", "isoCode": "es"}, {"name": "Sundanese", "nativeName": "Basa Sunda", "isoCode": "su"}, {"name": "Swahili", "nativeName": "Kiswahili", "isoCode": "sw"}, {"name": "Swati", "nativeName": "SiSwati", "isoCode": "ss"}, {"name": "Swedish", "nativeName": "Svenska", "isoCode": "sv"}, {"name": "Tamil", "nativeName": "தமிழ்", "isoCode": "ta"}, {"name": "Telugu", "nativeName": "తెలుగు", "isoCode": "te"}, {"name": "Tajik", "nativeName": "тоҷикӣ, toçikī, تاجیکی‎", "isoCode": "tg"}, {"name": "Thai", "nativeName": "ไทย", "isoCode": "th"}, {"name": "Tigrinya", "nativeName": "ትግርኛ", "isoCode": "ti"}, {"name": "Tibetan", "nativeName": "བོད་ཡིག", "isoCode": "bo"}, {"name": "Turkmen", "nativeName": "Türkmen, Түркмен", "isoCode": "tk"}, {"name": "Tagalog", "nativeName": "Wikang Tagalog", "isoCode": "tl"}, {"name": "Tswana", "nativeName": "Setswana", "isoCode": "tn"}, {"name": "Tonga (Tonga Islands)", "nativeName": "Faka Tonga", "isoCode": "to"}, {"name": "Turkish", "nativeName": "Türkçe", "isoCode": "tr"}, {"name": "Tsonga", "nativeName": "Xitsonga", "isoCode": "ts"}, {"name": "Tatar", "nativeName": "татар теле, tatar tele", "isoCode": "tt"}, {"name": "Twi", "nativeName": "Twi", "isoCode": "tw"}, {"name": "Tahitian", "nativeName": "Reo Tahiti", "isoCode": "ty"}, {"name": "Uighur, Uyghur", "nativeName": "ئۇيغۇرچە‎, Uyghurche", "isoCode": "ug"}, {"name": "Ukrainian", "nativeName": "Українська", "isoCode": "uk"}, {"name": "Urdu", "nativeName": "اردو", "isoCode": "ur"}, {"name": "Uzbek", "nativeName": "Oʻzbek, Ўзбек, أۇزبېك‎", "isoCode": "uz"}, {"name": "Venda", "nativeName": "Tshivenḓa", "isoCode": "ve"}, {"name": "Vietnamese", "nativeName": "Tiếng Việt", "isoCode": "vi"}, {"name": "Volapük", "nativeName": "Volapük", "isoCode": "vo"}, {"name": "Walloon", "nativeName": "Walon", "isoCode": "wa"}, {"name": "Welsh", "nativeName": "Cymraeg", "isoCode": "cy"}, {"name": "Wolof", "nativeName": "Wollof", "isoCode": "wo"}, {"name": "Western Frisian", "nativeName": "Frysk", "isoCode": "fy"}, {"name": "Xhosa", "nativeName": "isiXhosa", "isoCode": "xh"}, {"name": "Yiddish", "nativeName": "ייִדיש", "isoCode": "yi"}, {"name": "Yoruba", "nativeName": "Yorùbá", "isoCode": "yo"}, {"name": "Zhuang, Chuang", "nativeName": "Saɯ cueŋƅ, Saw cuengh", "isoCode": "za"}, {"name": "Zulu", "nativeName": "isiZulu", "isoCode": "zu"}]